IRIDIUM 119             
1 42959U 17061E   24178.48766991  .00000067  00000+0  16969-4 0  9993
2 42959  86.3974 326.4268 0002050  99.7753 260.3675 14.34217986351515
IRIDIUM 107             
1 42960U 17061F   24178.43692909  .00000157  00000+0  48938-4 0  9998
2 42960  86.3975 326.4649 0002215  98.8133 261.3314 14.34218603351514
IRIDIUM 132             
1 42961U 17061G   24178.93165194  .00000077  00000+0  20549-4 0  9994
2 42961  86.3975 326.2428 0002381  98.8334 261.3131 14.34218108351589
IRIDIUM 136             
1 42962U 17061H   24178.82382296  .00000405  00000+0  13764-3 0  9992
2 42962  86.3974 326.2909 0001880  98.7288 261.4120 14.34220391351589
IRIDIUM 139             
1 42963U 17061J   24178.48132804  .00000048  00000+0  10038-4 0  9998
2 42963  86.3977 326.4845 0002348 102.1354 258.0105 14.34217823351545
IRIDIUM 125             
1 42964U 17061K   24178.81748463  .00000026  00000+0  22596-5 0  9999
2 42964  86.3979 326.3919 0002004 105.5665 254.5752 14.34217631351603
IRIDIUM 135             
1 43070U 17083A   24179.21022154  .00000355  00000+0  11978-3 0  9994
2 43070  86.3963 262.8778 0002425  87.0200 273.1273 14.34218346340953
IRIDIUM 138             
1 43071U 17083B   24178.32860019  .00000391  00000+0  13266-3 0  9998
2 43071  86.3954 262.9623 0002031 104.7869 255.3552 14.34217830340819
